[{"norad_id":"25042","company":"IRIDIUM","tle_line2":"2 25042  86.3936 214.8839 0016918 343.7244  16.3414 14.49212145447699","launch_date":"1997-11-09","type":"LEO","tle_line1":"1 25042U 97069D   25159.42893755  .00000482  00000+0  12100-3 0  9999","satellite_name":"IRIDIUM 39"},{"norad_id":"25043","company":"IRIDIUM","tle_line2":"2 25043  86.3970 236.7024 0004085 108.5251 251.6391 14.38112244444742","launch_date":"1997-11-09","type":"LEO","tle_line1":"1 25043U 97069E   25159.74976727  .00000345  00000+0  10741-3 0  9993","satellite_name":"IRIDIUM 38"},{"norad_id":"25077","company":"IRIDIUM","tle_line2":"2 25077  86.3972 242.8637 0002837 105.6235 254.5275 14.36347589439985","launch_date":"1997-12-08","type":"LEO","tle_line1":"1 25077U 97077A   25159.74560919  .00000351  00000+0  11326-3 0  9998","satellite_name":"IRIDIUM 42"},{"norad_id":"25078","company":"IRIDIUM","tle_line2":"2 25078  86.3978 224.8216 0004009  76.9713 283.1933 14.40236716442481","launch_date":"1997-12-08","type":"LEO","tle_line1":"1 25078U 97077B   25159.72283616  .00000325  00000+0  96594-4 0  9995","satellite_name":"IRIDIUM 44"},{"norad_id":"25104","company":"IRIDIUM","tle_line2":"2 25104  86.3597  52.2676 0117597   6.9194 353.3638 15.22129582450679","launch_date":"1997-12-20","type":"LEO","tle_line1":"1 25104U 97082A   25159.18208208  .00021029  00000+0  75509-3 0  9991","satellite_name":"IRIDIUM 45"},{"norad_id":"25105","company":"IRIDIUM","tle_line2":"2 25105  86.3903  83.8687 0013527 102.6478 257.6235 14.42092432442001","launch_date":"1997-12-20","type":"LEO","tle_line1":"1 25105U 97082B   25159.77625517  .00000408  00000+0  11807-3 0  9992","satellite_name":"IRIDIUM 24"},{"norad_id":"25262","company":"IRIDIUM","tle_line2":"2 25262  86.3850  60.0300 0083926 283.3025  75.8880 15.39354945445725","launch_date":"1998-03-25","type":"LEO","tle_line1":"1 25262U 98018A   25159.71122411  .00022189  00000+0  50057-3 0  9995","satellite_name":"IRIDIUM 51"},{"norad_id":"25273","company":"IRIDIUM","tle_line2":"2 25273  86.3967 148.9174 0002361  89.7758 270.3709 14.35888592423538","launch_date":"1998-03-30","type":"LEO","tle_line1":"1 25273U 98019B   25159.46106326  .00000304  00000+0  98036-4 0  9992","satellite_name":"IRIDIUM 57"}]